GLOBALSTAR M023 [+]     
1 25621U 99004A   23337.42254964 -.00000143  00000+0 -21584-3 0  9994
2 25621  52.0130 323.9349 0009946 326.4311 198.4477 12.62446915144773
GLOBALSTAR M040 [-]     
1 25622U 99004B   23338.02380797 -.00000063  00000+0  22858-3 0  9991
2 25622  51.9937 325.4397 0000274 259.2917 136.0868 12.61961786144709
GLOBALSTAR M036 [-]     
1 25623U 99004C   23337.28195434 -.00000121  00000+0 -55327-3 0  9994
2 25623  51.9977 281.3206 0011924  56.5287 111.4968 11.86560090112279
GLOBALSTAR M038 [-]     
1 25624U 99004D   23338.16639045 -.00000062  00000+0  27383-3 0  9998
2 25624  51.9969 247.1916 0001953 354.2519 153.8415 12.32489022133150
GLOBALSTAR M022 [-]     
1 25649U 99012A   23337.60276309 -.00000042  00000+0  53883-3 0  9994
2 25649  52.0070  17.5083 0002963 137.9632  30.5008 12.02473100108811
GLOBALSTAR M041 [-]     
1 25650U 99012B   23337.15868777 -.00000030  00000+0  71734-3 0  9994
2 25650  52.0013 243.0339 0001565 315.7131  44.3580 11.96650629110992
GLOBALSTAR M046 [-]     
1 25651U 99012C   23338.16797348  .00000010  00000+0  10843-2 0  9992
2 25651  52.0076 346.5830 0002062 209.7556 224.4660 12.09378914116134
GLOBALSTAR M037 [+]     
1 25652U 99012D   23337.51688459 -.00000019  00000+0  47095-3 0  9993
2 25652  52.0000  94.4798 0002047  48.5685  31.5089 12.62390831140331
